ORBCOMM FM115 [+]       
1 41186U 15081H   24060.49136398  .00000908  00000+0  22105-3 0  9999
2 41186  46.9984 128.7601 0000623 307.2804  52.8026 14.60408655438481
ORBCOMM FM108 [+]       
1 41187U 15081J   24060.61267852  .00000981  00000+0  25687-3 0  9993
2 41187  47.0035 180.2570 0003180 285.7425  74.3109 14.56310624437729
ORBCOMM FM117 [+]       
1 41188U 15081K   24060.71583971  .00000696  00000+0  19306-3 0  9992
2 41188  46.9999 178.6896 0003502 295.6798  64.3725 14.56316519437788
ORBCOMM FM116 [+]       
1 41189U 15081L   24060.84227093  .00000697  00000+0  19335-3 0  9990
2 41189  47.0007 267.9091 0001708  39.4358 320.6651 14.56318323436614
